Origin Time       2024/08/09 19:57:00
Lat.              35.4
Long.             139.2
Depth. (km)       10
Mag.              5.3
Station Code      KNG001
Station Lat.      35.5291
Station Long.     139.7061
Station Height(m) 2
Record Time       2024/08/09 19:57:51
Sampling Freq(Hz) 100Hz
Duration Time(s)  87
Dir.              E-W
Scale Factor      7845(gal)/8223790
Max. Acc. (gal)   10.944
Last Correction   2024/08/09 19:57:51
Memo.             
[...]
    1441     1441     1409     1395     1426     1422     1378     1370 
    1377     1398     1429     1416     1404     1418     1410     1387 
    1387     1398     1413     1433     1439     1428     1410     1402 
    1399     1402     1414     1408     1390     1391     1406     1431 
    1439     1409     1382     1394     1410     1410     1401     1408 
    1440     1429     1377     1367     1398     1420     1425     1437 
    1426     1350     1331     1404     1440     1432     1428     1412 
    1378     1371     1429     1470     1451     1409     1379     1382 
    1383     1395     1432     1440     1418     1414     1422     1406 
    1383     1385     1399     1413     1432     1451     1432     1394 
    1372     1377     1395     1406     1414     1422     1418     1412 
    1406     1393     1385     1402     1421     1395     1391     1440 
    1443     1410     1399     1385     1391     1408     1402     1414 
    1436     1428     1405     1390     1398     1406     1421     1435 
    1401     1375     1399     1413     1399     1394     1416     1444 
    1451     1414     1372     1401     1417     1366     1370     1421 
    1425     1416     1422     1422     1406     1408     1428     1416 
    1387     1390     1417     1428     1410     1402     1405     1398 
    1402     1424     1429     1426     1429     1410     1387     1385 
    1395     1397     1397     1417     1444     1449     1408     1358 
    1382     1432     1429     1410     1405     1382     1375     1408 
    1408     1390     1405     1410     1381     1367     1404     1437 
    1421     1405     1410     1409     1404     1383     1386     1414 
    1408     1404     1428     1420     1406     1431     1431     1405 
    1397     1391     1386     1397     1405     1420     1433     1405 
    1385     1414     1433     1433     1431     1381     1335     1370 
    1424     1431     1435     1453     1433     1381     1358     1378 
    1437     1478     1444     1399     1386     1367     1389     1463 
    1480     1424     1385     1371     1352     1390     1483     1506 
    1429     1372     1372     1379     1387     1394     1410     1443 
    1448     1424     1389     1364     1386     1428     1428     1402 
    1410     1421     1393     1389     1436     1458     1424     1394 
    1405     1412     1383     1366     1405     1479     1497     1437 
    1372     1314     1327     1460     1526     1455     1414     1402 
    1350     1329     1381     1443     1459     1426     1383     1363 
    1372     1398     1433     1437     1412     1412     1408     1374 
    1378     1441     1487     1459     1391     1347     1345     1378 
    1412     1421     1404     1389     1399     1413     1417     1417 
    1390     1368     1381     1393     1426     1478     1460     1409 
    1383     1372     1389     1420     1432     1420     1406     1402 
    1387     1393     1429     1426     1399     1408     1420     1409 
    1404     1404     1429     1456     1408     1350     1354     1402 
    1437     1436     1453     1447     1387     1372     1383     1370 
    1385     1433     1468     1452     1410     1399     1394     1385 
    1412     1433     1413     1412     1424     1416     1412     1408 
    1410     1422     1417     1406     1416     1425     1410     1402 
    1420     1416     1378     1379     1421     1418     1401     1410 
    1389     1375     1410     1410     1379     1391     1428     1437 
    1410     1398     1417     1406     1385     1387     1406     1417 
    1398     1393     1406     1402     1409     1417     1416     1422 
    1405     1410     1449     1428     1395     1413     1395     1368 
    1399     1433     1433     1424     1405     1393     1402     1421 
    1421     1391     1394     1422     1408     1398     1409     1404 
    1408     1405     1368     1383     1432     1426     1410     1408 
    1393     1398     1414     1408     1393     1408     1435     1424 
    1410     1425     1431     1394     1343     1352     1408     1436 
    1431     1424     1417     1399     1402     1422     1399     1371 
    1398     1424     1416     1405     1413     1429     1402     1358 
    1377     1432     1445     1395     1367     1402     1413     1406 
    1406     1378     1378     1421     1424     1391     1385     1409 
    1437     1433     1394     1378     1395     1399     1393     1408 
    1425     1424     1413     1409     1408     1413     1424     1399 
    1382     1420     1435     1417     1402     1386     1395     1422 
    1408     1383     1405     1404     1374     1395     1428     1428 
    1436     1441     1408     1374     1386     1428     1420     1385 
    1409     1436     1418     1402     1395     1406     1408     1386 
    1402     1424     1410     1416     1420     1398     1404     1420 
    1413     1409     1413     1421     1425     1416     1418     1424 
    1413     1406     1401     1414     1437     1420     1390     1390 
    1409     1429     1441     1435     1424     1420     1401     1382 
    1395     1414     1417     1410     1404     1402     1410     1412 
    1394     1394     1402     1389     1394     1418     1404     1383 
    1404     1410     1391     1395     1416     1425     1406     1371 
    1378     1404     1402     1409     1414     1405     1410     1409 
    1406     1418     1414     1399     1410     1406     1385     1399 
    1412     1390     1399     1431     1429     1389     1379     1447 
    1479     1413     1355     1348     1363     1360     1313     1323 
    1458     1576     1570     1505     1435     1382     1344     1260 
    1239     1383     1485     1435     1424     1480     1483     1453 
    1455     1398     1258     1162     1189     1367     1579     1648 
    1676     1709     1532     1227     1066     1035     1156     1507 
    1795     1806     1696     1490     1189     1071     1167     1273 
    1490     1748     1741     1641     1521     1236     1169     1422 
    1579     1653     1641     1374     1242     1433     1524     1533 
    1775     1942     1637     1132      864      868     1012     1181 
    1318     1552     1755     1536     1138     1193     1571     1682 
    1526     1354     1144      901      766      946     1408     1703 
    1800     1938     1684      931      479      584      899     1436 
    2079     2355     2208     1746     1012      552      768     1205 
    1537     1825     1880     1765     1784     1710     1440     1332 
    1362     1364     1356     1183     1007     1192     1541     1794 
    1979     2031     1944     1695     1237      920     1077     1363 
    1355     1294     1355     1177      913     1046     1336     1512 
    1684     1756     1725     1656     1358     1074     1227     1440 
    1387     1333     1343     1300     1151      899      930     1395 
    1737     1798     1777     1528     1285     1402     1548     1629 
    1784     1738     1526     1413     1196      918      993     1247 
    1252     1285     1637     1815     1489     1044      872      986 
    1070     1048     1355     1860     2018     1957     1966     2000 
    1827     1213      746     1051     1467     1568     1707     1661 
    1324     1167     1198     1317     1588     1759     1819     1804 
    1401      918      837      823      899     1483     2065     2223 
    2344     2323     1971     1900     2188     2192     1918     1614 
    1059      238     -394     -514     -105      581     1048     1367 
    1985     2494     2529     2515     2355     1788     1262      873 
     311      -98       22      454      957     1452     1711     1563 
    1143      789      882     1283     1464     1699     2266     2173 
    1335      961      901      704      992     1675     2191     2470 
    2327     1871     1607     1521     1378     1139      893      982 
    1381     1595     1657     1873     2084     2058     1756     1374 
    1248     1343     1449     1664     2002     2187     2066     1669 
    1208     1144     1483     1583     1277     1016      984     1039 
    1086     1123     1163     1167     1128     1008      715      469 
     661     1262     1831     2153     2458     2656     2220     1236 
     372      -24       31      402      989     1702     2191     2292 
    2312     2304     1934     1209      668      691      988     1287 
    1707     2092     2192     2025     1528      853      499      621 
    1021     1408     1517     1513     1533     1320     1125     1366 
    1690     1796     1838     1818     1637     1324      981      716 
     600      949     1991     3082     3430     3126     2559     1863 
    1182      746      564      422      452      899     1323     1358 
    1310     1362     1410     1377     1237     1173     1219     1162 
    1139     1219     1070      729      581      830     1370     1971 
    2567     3001     2961     2548     1914      963       55     -310 
    -216      114      664     1325     1802     1904     1848     1923 
    1998     1854     1783     2046     2168     1696     1080      943 
    1166     1329     1329     1250     1201     1263     1459     1718 
    1842     1892     2124     2222     2034     2112     2025     1011 
     162      449     1066     1443     1659     1576     1350     1134 
     849      811     1125     1202      954      918      984      762 
     579      891     1510     1868     1771     1655     1780     1895 
    1903     1784     1371     1062     1363     1578      980      425 
     784     1433     1849     2473     3115     2948     2138     1625 
    1660     1548      966      514      395      280      249      315 
     218      114      407     1251     2224     2689     2700     2583 
    2246     1764     1524     1574     1559     1486     1633     1687 
    1506     1559     1729     1588     1406     1648     2223     2641 
    2710     2612     2185     1236      413      372      623      569 
     568      749      650      581     1024     1621     2091     2324 
    2200     2076     2097     1985     1857     1821     1506      835 
     229       -1      241      919     1734     2259     2247     1726 
    1021      465        0     -292       32      734     1198     1474 
    1668     1641     1474     1251      943      604      448      666 
    1093     1356     1417     1622     2097     2533     2830     3069 
    3013     2589     2033     1351      722      484      415      514 
    1134     1768     1840     1721     1730     1726     1710     1745 
    1784     1894     2126     2312     2187     1782     1566     1810 
    2138     2253     2357     2286     1679      993      616      191 
    -101      183      535      572      720      986      935      714 
     799     1200     1448     1279     1086     1247     1555     1667 
    1440      950      436      -25     -297       49      822     1325 
    1719     2403     2818     2512     1957     1505     1088      974 
    1421     2007     2296     2508     2878     3140     2991     2538 
    2056     1642     1363     1166      778      324      195      324 
     580      967     1163     1139     1331     1590     1429     1080 
    1092     1449     1918     2469     2926     3051     2867     2358 
    1642     1240     1165     1026     1001     1279     1642     2042 
    2359     2227     1632     1031      885     1196     1552     1755 
    1706     1188      413     -205     -525     -311      545     1547 
    2095     2080     1777     1391      950      718      892     1169 
    1412     1742     1817     1306      648      359      330      253 
     117      105      492     1444     2517     3121     3295     3037 
    2189     1302      722      203       49      384      680      828 
     785      302     -186     -157      210      776     1607     2525 
    3256     3586     3441     3095     2887     2835     2995     3492 
    3958     3916     3430     2709     1819     1000      467      153 
      82      395      997     1586     1915     1998     2131     2427 
    2635     2594     2277     1707     1085      591      245      -31 
    -360     -819    -1347    -1647    -1301     -247     1127     2289 
    2671     2185     1572     1279     1128     1197     1375     1302 
    1242     1246      989      812      977     1308     1845     2241 
    1888     1175      930      994      804      546      561      699 
     781      816      954     1173     1260     1416     1809     2133 
    2299     2388     2332     2215     2147     2145     2216     2277 
    2274     2143     1896     1769     1825     1934     2087     2338 
    2691     3021     3121     2852     2398     2185     2346     2606 
    2660     2539     2578     2759     2766     2639     2616     2724 
    2752     2573     2309     1952     1356      712      324      248 
     495     1017     1659     2355     2862     2662     1711      382 
   -1212    -2928    -4298    -4881    -4380    -2795     -453     2182 
    4332     5274     5039     4148     2921     1372     -203    -1431 
   -2411    -3106    -3294    -3287    -3194    -2174      475     3969 
    6613     7693     7457     5644     2309    -1073    -3333    -4491 
   -4720    -4186    -3245    -2177    -1112      -45     1038     1969 
    2552     2918     3298     3711     4260     4972     5320     4768 
    3261      927    -1730    -3839    -5032    -5362    -4849    -3742 
   -2257     -326     1977     4467     7121     9726    11790    12880 
   12858    12129    10967     9054     6515     3740      567    -2559 
   -4330    -4511    -3811    -2335     -253     1822     3684     5039 
    5254     4463     3484     2605     1759     1246     1660     2681 
    2493     1120      348     -638    -2725    -4536    -5611    -6201 
   -5900    -4446    -2191      500     3519     6076     7136     6601 
    4733     1871     -947    -2610    -2801    -1935     -838      -67 
     256     -423    -2668    -5371    -6793    -6446    -4153       22 
    4695     8405    10540    10818     9490     7345     4986     2787 
    1206      392      -10     -203       25      743     1890     3626 
    5567     6880     7353     6924     5449     3059      122    -2457 
   -3977    -4577    -4027    -1929     1023     3817     5863     6723 
    6478     5611     4375     3088     1879      198    -2164    -4638 
   -6509    -7009    -5849    -3723    -1264     1236     3107     4259 
    5509     7041     8451     9517     9952     9263     7261     4552 
    1861     -693    -2967    -4459    -5115    -5239    -4675    -3418 
   -2219    -1620    -1441    -1320    -1200    -1116     -768       82 
    1210     2454     3746     4877     5753     5883     4572     2336 
     160    -1709    -3029    -3434    -3014    -1853      108     2465 
    4707     6551     7458     7352     7207     7550     7738     7138 
    5699     3681     1614     -274    -2268    -4133    -5204    -5329 
   -4610    -3150    -1318      743     3267     5999     8160     9223 
    9158     8237     6744     4957     3154     1216     -976    -2992 
   -4702    -6304    -7314    -7226    -6365    -5190    -3774    -2124 
    -473      882     1821     2450     3103     3994     4807     5293 
    5621     5576     4884     3901     2945     1899      604     -796 
   -1976    -2745    -2949    -2497    -1498      122     2538     5363 
    7624     8788     9103     8553     6936     4639     1911    -1287 
   -4363    -6372    -6961    -6559    -5802    -4677    -2914     -857 
    1143     2809     3403     2866     2137     1822     1815     1985 
    2501     3294     3967     4283     4158     3774     3300     2573 
    1923     1753     1680     1684     2312     3634     5324     6832 
    7782     8380     8646     8230     7304     6250     4868     3206 
    1829     1065      993     1154      838       97     -881    -2215 
   -3500    -4017    -3541    -2401    -1048      360     1657     2389 
    2428     2108     1644      965       49     -861    -1796    -3176 
   -4961    -6843    -8607    -9539    -8881    -6771    -3777     -276 
    3312     6273     7960     8457     8232     7140     4822     2029 
      43     -990    -1649    -1782    -1067      221     1772     3271 
    4239     4486     4326     4280     4749     5759     6814     7277 
    6929     6193     5674     5422     5051     4359     3626     2884 
    1552     -368    -2195    -3731    -4846    -5107    -4379    -2733 
    -508     1740     3727     5003     5198     4448     2779      635 
   -1101    -2218    -2793    -2967    -2952    -2539    -1979    -1691 
   -1001      221     1093     2020     3688     5289     6434     7426 
    7902     7615     6575     4708     2502      525    -1097    -2061 
   -2103    -1642    -1210     -849     -496     -156      364     1193 
    2030     2789     3898     5161     5690     5375     4788     4132 
    3385     2689     2139     1644     1123      749      668      562 
      17     -847    -1485    -1684    -1641    -1318     -876     -684 
    -461        8      361      452      318       21     -288     -557 
    -567      -70      734     1591     2384     2798     2585     1917 
    1275     1082     1393     1958     2432     2612     2486     2153 
    1987     2147     2185     1881     1513     1287     1312     1621 
    2123     2651     2960     2961     2822     2484     1868     1395 
    1287     1335     1401     1291     1012      747      469      646 
    1705     2945     3831     4591     5050     4811     3946     2722 
    1539      831      580      471      337      170      164      384 
     378      -16     -361     -391     -198      -24      -12     -159 
    -660    -1597    -2538    -3121    -3275    -2943    -2242    -1436 
    -648      164     1117     2272     3595     4766     5314     5236 
    4946     4594     4037     3343     2646     1883     1251     1142 
    1416     1676     1884     2007     1949     2058     2594     3303 
    4031     4648     5019     5287     5341     4887     4016     3018 
    2115     1212      -66    -1676    -3242    -4664    -5771    -5886 
   -4710    -2921     -980     1059     2597     3396     3893     4068 
    4105     4421     4548     4109     3520     2903     2065     1169 
     353     -457    -1144    -1498    -1485    -1340    -1471    -1873 
   -2092    -1890    -1232       13     1644     3222     4714     5977 
    6492     6185     5317     4078     2799     1790     1177      946 
     889      737      423       85     -330     -784     -749      -37 
     958     2030     3229     4436     5358     5891     6016     5495 
    4325     2832     1231     -315    -1594    -2442    -2722    -2347 
   -1495     -599      121      762     1464     2304     3172     3900 
    4209     3765     2917     2315     1895     1278      429     -517 
   -1545    -2539    -3249    -3673    -3646    -2832    -1520     -170 
    1258     2706     3709     3928     3431     2450     1167     -238 
   -1433    -1987    -1779     -949      390     1911     3235     4290 
    4930     5047     4986     4966     4846     4800     5119     5630 
    6184     6683     6592     5606     4144     2651     1359      433 
       5      175      850     1867     2987     3721     3867     3615 
