Origin Time       2024/08/09 19:57:00
Lat.              35.4
Long.             139.2
Depth. (km)       10
Mag.              5.3
Station Code      KNG001
Station Lat.      35.5291
Station Long.     139.7061
Station Height(m) 2
Record Time       2024/08/09 19:57:51
Sampling Freq(Hz) 100Hz
Duration Time(s)  87
Dir.              N-S
Scale Factor      7845(gal)/8223790
Max. Acc. (gal)   22.962
Last Correction   2024/08/09 19:57:51
Memo.             
[...]
   19406    19391    19386    19348    19345    19413    19472    19500 
   19460    19344    19291    19346    19394    19421    19473    19467 
   19369    19314    19345    19415    19458    19421    19359    19360 
   19410    19435    19418    19406    19417    19406    19367    19359 
   19387    19403    19407    19425    19434    19399    19373    19403 
   19408    19371    19379    19406    19388    19367    19357    19388 
   19442    19417    19360    19379    19408    19383    19390    19441 
   19421    19379    19399    19388    19340    19360    19415    19433 
   19418    19398    19406    19425    19396    19342    19388    19469 
   19398    19302    19364    19456    19449    19386    19359    19399 
   19421    19387    19369    19387    19410    19421    19410    19379 
   19353    19363    19386    19372    19386    19437    19453    19437 
   19380    19307    19341    19438    19427    19361    19377    19411 
   19411    19433    19438    19437    19465    19413    19317    19349 
   19430    19425    19395    19394    19390    19390    19398    19365 
   19348    19402    19449    19445    19387    19329    19361    19415 
   19400    19373    19408    19453    19425    19376    19368    19380 
   19404    19402    19369    19376    19395    19408    19411    19390 
   19411    19464    19431    19340    19333    19411    19434    19392 
   19373    19380    19419    19453    19383    19313    19381    19440 
   19372    19305    19340    19442    19516    19464    19361    19377 
   19430    19400    19367    19369    19406    19467    19471    19408 
   19361    19387    19441    19399    19311    19319    19408    19471 
   19438    19388    19413    19421    19361    19321    19341    19403 
   19446    19427    19371    19345    19406    19452    19400    19350 
   19356    19379    19384    19399    19462    19477    19388    19299 
   19305    19373    19403    19413    19423    19400    19433    19481 
   19379    19269    19338    19434    19427    19394    19369    19367 
   19399    19410    19384    19392    19429    19415    19367    19338 
   19346    19400    19442    19437    19433    19441    19417    19368 
   19367    19404    19430    19414    19368    19371    19394    19371 
   19380    19423    19429    19422    19403    19369    19364    19399 
   19434    19440    19438    19421    19356    19319    19367    19431 
   19468    19471    19407    19305    19268    19340    19426    19453 
   19445    19413    19388    19386    19357    19367    19446    19485 
   19421    19345    19346    19375    19367    19365    19394    19406 
   19403    19444    19464    19384    19338    19395    19403    19359 
   19380    19437    19452    19399    19337    19341    19406    19446 
   19391    19340    19372    19364    19340    19419    19469    19425 
   19381    19364    19407    19464    19425    19350    19352    19413 
   19437    19387    19375    19419    19425    19421    19410    19348 
   19326    19399    19472    19445    19352    19340    19395    19407 
   19395    19371    19356    19413    19452    19407    19381    19392 
   19376    19369    19402    19421    19410    19429    19444    19394 
   19384    19446    19431    19357    19373    19434    19417    19353 
   19317    19357    19440    19427    19345    19352    19408    19400 
   19375    19411    19457    19437    19386    19353    19365    19396 
   19390    19387    19408    19407    19407    19408    19387    19369 
   19365    19371    19380    19392    19406    19421    19414    19375 
   19379    19454    19467    19380    19330    19381    19438    19419 
   19376    19360    19369    19426    19453    19394    19346    19353 
   19402    19449    19398    19323    19379    19469    19454    19383 
   19357    19371    19399    19429    19398    19363    19417    19417 
   19352    19381    19418    19375    19353    19373    19388    19422 
   19456    19413    19356    19400    19462    19429    19352    19346 
   19423    19453    19395    19360    19380    19388    19354    19327 
   19377    19464    19473    19367    19286    19359    19453    19446 
   19400    19354    19360    19433    19446    19381    19359    19384 
   19410    19426    19408    19360    19357    19415    19406    19349 
   19387    19434    19400    19399    19456    19465    19421    19380 
   19368    19390    19410    19413    19410    19384    19380    19411 
   19388    19337    19359    19407    19417    19404    19399    19402 
   19406    19398    19373    19384    19444    19449    19372    19356 
   19421    19438    19408    19387    19354    19364    19415    19399 
   19365    19399    19418    19388    19354    19329    19350    19417 
   19452    19430    19399    19398    19381    19375    19426    19450 
   19413    19371    19346    19369    19425    19422    19373    19361 
   19386    19423    19440    19422    19429    19411    19352    19369 
   19427    19404    19381    19423    19429    19396    19395    19390 
   19373    19381    19410    19419    19407    19398    19373    19377 
   19440    19435    19367    19349    19384    19430    19433    19388 
   19381    19414    19425    19383    19353    19394    19419    19402 
   19395    19390    19391    19425    19431    19381    19325    19310 
   19337    19372    19406    19454    19465    19402    19346    19377 
   19418    19399    19353    19345    19422    19450    19334    19314 
   19489    19577    19449    19332    19361    19406    19371    19321 
   19314    19399    19548    19542    19377    19353    19454    19425 
   19336    19338    19340    19280    19288    19454    19637    19638 
   19512    19392    19271    19187    19237    19348    19425    19515 
   19619    19575    19377    19269    19279    19238    19232    19387 
   19542    19515    19430    19495    19566    19453    19338    19341 
   19313    19311    19460    19580    19588    19566    19426    19188 
   19219    19552    19542    19020    18812    19282    19664    19492 
   19260    19330    19467    19464    19388    19359    19419    19448 
   19336    19269    19380    19435    19255    19134    19415    19772 
   19755    19552    19334    18941    18623    18866    19380    19523 
   19543    19880    20027    19614    19178    19070    19040    19056 
   19360    19750    19854    19808    19840    19696    19263    19030 
   19161    19230    19183    19218    19345    19557    19708    19614 
   19448    19527    19650    19307    18877    19182    19753    19699 
   19464    19691    19880    19476    18962    18970    19230    19207 
   19089    19265    19526    19483    19199    19026    19156    19445 
   19677    19792    19764    19570    19257    19039    19172    19410 
   19325    19155    19295    19527    19557    19461    19407    19472 
   19606    19722    19723    19440    19066    19044    19230    19291 
   19295    19272    19168    19138    19303    19533    19684    19668 
   19449    19282    19421    19710    19836    19650    19361    19332 
   19434    19278    19102    19377    19759    19718    19448    19269 
   19141    19043    19008    18952    18982    19456    20228    20476 
   19981    19592    19674    19534    19025    18974    19453    19539 
   19126    19149    19734    19957    19583    19205    18979    18813 
   18813    18733    18517    18827    19626    19913    19626    19800 
   20409    20248    19422    19094    19074    18709    18557    18959 
   19211    19098    19198    19414    19126    18716    18998    19510 
   19354    19103    19687    20511    20725    20731    20848    20389 
   19282    18508    18361    18319    18385    18932    19803    20421 
   20526    20232    19591    18936    18817    18948    18794    18804 
   19302    19707    19745    19589    19333    19171    19192    19354 
   19585    19595    19363    19171    19107    19219    19441    19422 
   19203    19414    20052    20179    19489    18785    18770    19267 
   19570    19539    19589    19657    19390    18925    18515    18166 
   18189    18800    19618    20397    21122    21547    21298    20353 
   19309    18530    17810    17413    17883    18999    20043    20561 
   20542    20266    20039    19830    19341    18686    18328    18435 
   18800    19144    19422    19777    20102    20151    19916    19650 
   19554    19452    19163    19005    19221    19468    19408    19233 
   19194    19201    19121    19008    19016    19218    19516    19757 
   19765    19570    19606    20050    20434    20366    19944    19379 
   18832    18523    18476    18422    18393    18736    19257    19400 
   19210    19203    19456    19539    19431    19458    19365    19128 
   19533    20495    20706    19699    18531    18215    18638    19236 
   19774    20088    20154    20349    20541    20012    19035    18584 
   18674    18841    19145    19565    19616    19074    18536    18609 
   18989    19333    19809    20247    20227    19765    19171    18794 
   18913    19387    19782    20113    20563    20725    20212    19368 
   18777    18673    18891    19093    19184    19556    20328    20819 
   20497    19742    19222    18963    18536    18091    18243    18909 
   19475    19820    20001    19851    19533    19261    18766    17942 
   17346    17550    18424    19306    19843    20120    20162    20166 
   20185    19673    18738    18288    18455    18681    18847    19407 
   20551    21436    21285    20656    20418    20390    19732    18547 
   18000    18324    18666    18855    19283    19840    20108    19958 
   19626    19359    19271    19361    19406    19408    19751    20216 
   20050    19426    19286    19734    19951    19589    19136    18933 
   18810    18659    18634    18792    19064    19468    19755    19550 
   19190    19198    19408    19418    19170    18859    18631    18667 
   19111    19634    19896    20044    20228    20375    20262    19811 
   19468    19398    19105    18705    18881    19414    19518    19263 
   19241    19326    19099    18959    19472    20167    20232    19970 
   20196    20470    19845    18802    18342    18353    18284    18212 
   18598    19384    19872    19710    19379    19462    19865    20067 
   19872    19390    18817    18646    19095    19537    19508    19330 
   19359    19489    19369    19178    19407    19693    19637    19827 
   20399    20414    19642    19056    19198    19570    19562    19116 
   18719    18854    19386    19678    19336    18723    18612    19149 
   19561    19298    18941    19251    19923    20110    19662    19311 
   19580    19958    19758    19261    19118    19359    19635    19687 
   19531    19434    19302    18781    18339    18735    19392    19350 
   19125    19392    19483    18889    18301    18279    18546    18828 
   19214    19681    20067    20322    20279    19732    18968    18686 
   19062    19453    19653    20190    21099    21708    21566    20898 
   20146    19508    19116    19055    19222    19400    19380    19097 
   18763    18769    19305    19967    20289    20382    20248    19654 
   19068    19020    19037    18665    18459    18886    19298    19005 
   18362    17980    17837    17740    17774    18061    18551    19164 
   19818    20204    20071    19695    19440    19248    19063    19187 
   19665    20151    20582    20904    20706    20094    19685    19526 
   19306    19147    19280    19573    19799    19953    20119    20256 
   20245    20040    19584    18851    18166    18017    18474    19152 
   19630    19728    19584    19477    19388    19103    18624    18262 
   18472    19214    19797    19851    19645    19415    19147    18851 
   18717    18909    19221    19390    19619    20070    20383    20347 
   20169    19866    19294    18652    18392    18744    19502    20308 
   20999    21352    21084    20312    19444    18652    18026    17832 
   18056    18333    18657    19187    19444    18940    18188    17892 
   18025    18466    19303    20227    20745    20845    20776    20551 
   20135    19718    19367    19072    19102    19462    19726    19773 
   19701    19500    19375    19580    19948    20101    20043    20119 
   20194    19761    19057    18754    18774    18860    19280    19881 
   19947    19527    19330    19404    19199    18609    18199    18265 
   18353    18293    18594    19261    19847    20343    20610    20299 
   19811    19653    19631    19639    19855    20089    20090    20009 
   19872    19414    18636    17928    17751    18208    18914    19446 
   19750    20146    20667    20549    19318    17861    17417    18122 
   19168    20186    21550    22943    23333    22769    22080    21120 
   19191    16448    13830    12148    11619    12280    14192    16916 
   19678    21938    23309    23701    23271    21982    20290    19457 
   20186    21735    22932    23469    23477    22767    21392    19755 
   17938    15873    13805    12062    10532     8989     8024     8487 
   10368    13585    18522    24545    29451    31436    30622    27981 
   24185    20370    18289    18739    20790    23340    26096    28042 
   27438    24035    19076    13911     9892     8433    10030    13626 
   17896    22403    26654    29493    29951    27985    24331    19647 
   14345     9355     6295     6357     9111    13478    19241    25837 
   31391    34393    34861    33610    31342    28768    26893    26055 
   25566    24719    23085    20202    15722     9830     3577    -1590 
   -4579    -4676    -1830     3040     8969    15245    21016    26033 
   30397    33357    33764    31602    28221    24884    21983    19098 
   15915    13695    12862    11774    10152     8375     6484     5911 
    7717    11524    16862    23163    29652    35317    38554    38330 
   35225    30541    25844    22601    21207    21012    20864    20120 
   19161    18090    16351    13915    11638    10590    11299    13575 
   16726    19737    22049    24009    25741    26870    27311    26977 
   26007    24980    23680    21578    19273    17666    16920    16883 
   17200    17246    16556    15051    13061    11040     9505     9559 
   12031    16208    20646    24394    27033    28263    27819    25844 
   22894    19519    16443    14686    14605    15448    16183    16116 
   15358    14829    14949    15430    16510    18616    21259    23406 
   24730    25609    25725    24432    22388    20590    18844    16933 
   15215    13451    11464     9906     9294    10174    12999    17051 
   21153    24619    27130    28748    29574    29405    28317    26746 
   25049    23525    22212    20753    18918    16931    15165    13809 
   13082    13385    14673    16100    17108    18076    19442    21254 
   23178    24659    25382    25124    23781    21876    20178    18931 
   18044    17604    17523    17139    15793    13625    11909    12349 
   15121    18743    22284    25466    27514    27854    26574    24032 
   21077    18805    17707    17837    18955    20083    20412    19924 
   18627    16911    15526    14925    15641    17381    18808    19633 
   20424    20915    20505    19606    19230    19631    20213    20173 
   18972    16695    14062    12077    11303    11668    12756    14373 
   16868    20085    22817    24066    23895    23090    22527    22856 
   24105    25462    26393    27330    28379    28514    26742    23454 
   19880    16872    14975    14196    13801    13450    13463    13927 
   14481    14883    15454    16468    17563    18364    19103    19992 
   20549    20518    20104    19111    17941    17851    18783    19462 
   19441    19114    18733    18337    18108    18319    18759    19014 
   19340    20097    21101    22295    23953    26010    27575    27696 
   26543    24722    22551    20266    18144    16752    16187    15857 
   15781    16233    17001    17949    18979    19851    20279    19903 
   18949    18296    18100    17887    17826    18091    18299    18522 
   18871    18810    18160    17134    15727    14235    13313    13508 
   14914    16814    18381    19395    19791    19422    18075    16298 
   15527    16140    17331    18615    19807    20684    21235    21651 
   21919    21824    21581    21725    22457    23673    24860    25070 
   23955    22198    20830    20353    20439    20839    21743    22928 
   23737    23695    22731    21072    18831    15942    12915    10897 
   10611    12136    15325    19607    24112    27977    30253    30437 
   29022    26985    25006    23004    20741    18646    17173    16379 
   16251    16429    16484    16644    17194    17936    18727    19581 
   20379    20966    21072    20596    19912    19132    18260    17666 
   17016    15685    14122    12993    12513    12976    14241    15520 
   16490    17489    18743    20104    21240    21934    22238    22262 
   21922    21224    20379    19361    18284    17687    17641    17651 
   17497    17402    17772    18663    19545    19932    19683    19203 
   19371    20414    21960    23687    24865    24822    23638    21358 
   18114    14882    12677    11732    11707    12290    13826    16487 
   19344    21582    23066    23539    23202    22954    23078    23252 
   23656    24479    25178    25076    24021    22253    20140    18250 
   17066    16599    16676    17236    18168    19120    19761    20250 
   20737    20885    20646    20410    20349    20403    20418    20356 
   20254    19963    19465    19010    18831    18736    18060    16598 
   14920    13468    12421    12129    12877    14619    17116    19849 
   22064    23484    24463    25259    25659    25138    23591    21838 
   20470    19044    17533    16831    17247    18219    19330    20483 
   21582    22561    23360    23774    23630    22933    21865    20721 
   19809    19344    19132    18594    17506    16239    15068    14003 
   13244    13089    13575    14482    15638    16953    18125    18985 
   19705    20270    20559    20736    20933    20861    20266    19638 
   19560    19699    19491    18968    18364    17763    17307    17146 
   17115    16904    16660    16858    17786    19333    20989    22357 
   23616    24765    25408    25658    25779    25691    25524    25313 
   24688    23355    21236    18717    16621    15356    14775    14787 
   15286    15911    16447    16985    17608    18319    19071    19757 
   20515    21573    22769    23724    24201    23978    22823    20871 
   18642    16619    15222    14769    14879    14998    15525    16961 
   19025    21170    22866    23853    24183    23886    23205    22496 
   21708    20668    19647    18836    17898    16829    16100    15685 
   15196    14697    14499    14548    14737    15259    16200    17497 
   18927    19946    20356    20575    20827    20980    20954    20919 
   21070    21041    20297    19171    18355    17959    17848    18107 
   18821    19707    20299    20571    20684    20464    19920    19565 
   19785    20521    21427    22180    22569    22331    21466    20290 
   19043    17948    17273    17219    17791    18719    19870    21344 
   22904    23912    23811    22754    21471    20320    19332    18793 
   18771    18868    18821    18569    18004    17135    16040    14832 
   13992    13905    14299    14843    15469    16171    16861    17113 
   16841    16800    17456    18505    19442    19921    20074    20197 
