Origin Time       2024/08/09 19:57:00
Lat.              35.4
Long.             139.2
Depth. (km)       10
Mag.              5.3
Station Code      KNG001
Station Lat.      35.5291
Station Long.     139.7061
Station Height(m) 2
Record Time       2024/08/09 19:57:51
Sampling Freq(Hz) 100Hz
Duration Time(s)  87
Dir.              U-D
Scale Factor      7845(gal)/8223790
Max. Acc. (gal)   18.093
Last Correction   2024/08/09 19:57:51
Memo.             
[...]
    9612     9671     9756     9779     9752     9710     9690     9715 
    9713     9655     9656     9714     9751     9769     9764     9718 
    9678     9652     9613     9640     9740     9776     9756     9728 
    9667     9645     9698     9734     9725     9729     9742     9703 
    9660     9691     9765     9803     9736     9628     9644     9730 
    9726     9684     9706     9728     9707     9714     9738     9729 
    9714     9705     9671     9668     9713     9744     9760     9734 
    9668     9670     9702     9655     9622     9683     9733     9728 
    9725     9744     9791     9840     9802     9714     9683     9674 
    9622     9594     9621     9686     9769     9775     9674     9628 
    9714     9819     9849     9776     9643     9582     9613     9663 
    9726     9791     9815     9778     9701     9640     9639     9691 
    9717     9698     9701     9705     9703     9711     9693     9688 
    9722     9736     9732     9718     9691     9684     9703     9718 
    9738     9765     9730     9625     9597     9714     9813     9763 
    9660     9632     9691     9768     9791     9765     9740     9720 
    9668     9599     9566     9618     9726     9780     9749     9714 
    9718     9721     9709     9728     9771     9772     9733     9687 
    9668     9703     9748     9736     9678     9626     9645     9722 
    9790     9815     9775     9691     9593     9517     9575     9725 
    9823     9832     9744     9657     9667     9718     9765     9788 
    9767     9711     9649     9632     9707     9829     9815     9644 
    9564     9626     9667     9693     9753     9790     9786     9778 
    9742     9680     9647     9661     9684     9697     9718     9741 
    9715     9640     9605     9691     9822     9865     9790     9680 
    9597     9572     9648     9782     9904     9927     9778     9571 
    9460     9521     9759     9923     9829     9655     9563     9548 
    9639     9822     9926     9819     9636     9544     9572     9698 
    9838     9868     9774     9659     9628     9663     9682     9697 
    9738     9756     9709     9634     9618     9670     9725     9767 
    9779     9738     9705     9714     9724     9756     9815     9786 
    9660     9564     9560     9645     9747     9778     9753     9706 
    9657     9659     9671     9671     9709     9767     9786     9751 
    9702     9713     9722     9672     9667     9705     9703     9690 
    9702     9778     9844     9761     9633     9605     9644     9706 
    9741     9740     9736     9725     9710     9670     9607     9630 
    9721     9757     9748     9722     9695     9693     9671     9652 
    9701     9779     9830     9822     9734     9639     9621     9649 
    9672     9742     9828     9801     9707     9676     9690     9691 
    9675     9636     9618     9675     9752     9772     9734     9679 
    9698     9792     9774     9649     9640     9734     9757     9713 
    9717     9752     9732     9667     9629     9664     9717     9707 
    9706     9733     9725     9736     9753     9675     9598     9651 
    9756     9792     9767     9740     9717     9699     9699     9722 
    9769     9765     9664     9583     9625     9720     9768     9749 
    9676     9633     9691     9742     9710     9702     9720     9720 
    9733     9698     9653     9715     9798     9779     9687     9648 
    9699     9741     9718     9659     9668     9736     9717     9674 
    9705     9715     9671     9651     9684     9745     9799     9795 
    9740     9717     9732     9721     9690     9651     9618     9682 
    9772     9738     9682     9720     9741     9683     9643     9695 
    9799     9838     9761     9659     9634     9645     9664     9720 
    9745     9736     9751     9726     9645     9633     9705     9761 
    9765     9709     9630     9628     9703     9738     9725     9752 
    9774     9730     9680     9664     9690     9747     9752     9707 
    9728     9774     9733     9675     9644     9617     9651     9701 
    9702     9724     9742     9709     9691     9702     9722     9775 
    9786     9705     9653     9693     9703     9648     9634     9703 
    9760     9749     9715     9701     9729     9759     9710     9671 
    9706     9721     9710     9711     9679     9675     9726     9722 
    9683     9687     9717     9749     9760     9738     9698     9660 
    9647     9683     9765     9817     9771     9671     9594     9599 
    9694     9786     9771     9706     9694     9693     9667     9676 
    9718     9728     9714     9714     9730     9775     9802     9757 
    9686     9647     9645     9675     9714     9722     9710     9741 
    9759     9713     9693     9718     9732     9714     9655     9636 
    9672     9682     9686     9722     9756     9775     9778     9737 
    9679     9667     9684     9667     9595     9513     9486     9463 
    9428     9556     9971    10498    10737    10409     9751     9234 
    9007     8981     9225     9829    10443    10480     9888     9220 
    8904     8931     9171     9558     9958    10222    10099     9499 
    9089     9497    10201    10527    10616    10420     9703     9144 
    9409     9981    10143     9864     9508     9431     9528     9437 
    9262     9244     9374     9711    10096    10035     9645     9528 
    9652     9833    10363    10893    10813    10689    10945    10952 
   10582    10281    10120    10145    10315    10173     9308     7781 
    6400     6241     7325     8854    10459    11608    11257     9697 
    8634     8442     8166     8051     8851    10006    10663    10756 
   10471    10143    10010     9688     9267     9720    10588    10137 
    8737     8302     8899     9420    10085    11367    11912    10561 
    9045     9143     9626     9315     9310    10110    10604    10447 
   10099     9693     9559     9671     9201     8486     8712     9468 
    9663     9463     9427     9605    10033    10719    11075    10308 
    8872     8309     8897     9672    10513    11537    11947    11326 
   10300     9396     8550     7935     8054     8958    10230    11241 
   11300    10314     8762     7423     7454     8896     9917     9562 
    9050     9336     9972    10268    10042     9832    10206    10731 
   10724    10342     9944     9316     8380     8175     9630    11529 
   12070    11443    10377     8905     7902     8256     9171     9725 
   10014    10184    10272    10257     9737     8802     8414     8653 
    8754     9148    10415    11223    10216     8502     8276     9709 
   10929    10858    10265    10137    10104     9143     8019     8602 
   10112    10330     9803    10037    10516    10669    10615    10029 
    9270     9167     9213     8793     8587     9035     9664    10066 
   10237    10349    10172     9482     9283     9987    10054     9362 
    9551    10068     9676     9740    10710    10412     9069     9153 
   10093    10041     9846    10392    10782    10631    10238     9458 
    8252     7488     8016     8976     9003     8611     8831     9065 
    8777     9120    10600    11691    11695    11767    12050    11392 
   10017     9444     9890     9846     8838     8415     9198    10012 
   10369    10377     9679     8734     8625     9347    10215    10866 
   10987    10251     9072     8434     8444     8340     8267     9076 
   10342    10849    10602    10431    10652    10963    10627     9443 
    8533     8752     9441     9713     9405     8911     8662     8326 
    7726     7859     9043    10212    10897    11466    11723    11091 
   10180    10154    10650    10810    10966    11098    10191     8433 
    7558     8236     9147     9306     9590    10847    11988    11419 
    9215     6926     5887     6246     7577     9421    11071    12033 
   12603    13049    12741    11210     9386     8260     7661     7555 
    8232     9050     9286     9229     9320     9483     9516     9445 
    9400     9535    10092    10922    11526    11890    12087    11603 
   10311     8922     8149     8371     9393    10436    11070    11175 
   10436     9192     8397     8221     8303     8856    10019    10895 
   10546     9232     7657     6467     6774     8827    10925    11578 
   10924     9621     8452     8415     9710    10978    10883    10068 
    9972    10670    11205    10856     9660     8390     8005     8941 
   10582    11654    11560    10705     9684     9007     8907     8964 
    8711     8445     8614     9194    10130    10926    10570     9493 
    9250     9564     9209     8658     8507     8102     7665     8522 
   10558    12056    12202    11607    10818    10319    10697    11303 
   10860     9742     8916     8078     7631     8928    10897    11252 
   10370     9603     8590     7123     6427     7128     8409     9660 
   11296    13279    14166    12812    10031     7777     7261     7938 
    8502     8845     9726    10791    10879     9969     8961     8492 
    8991    10220    11090    11175    10876     9914     8168     7171 
    7898     8957     9236     9481     9957     9724     8857     8955 
   10449    11611    11442    10675     9904     9513     9918    10713 
   11342    11674    11422    10802    10411     9748     8356     7457 
    8029     9201     9937    10122     9880     9562     9664    10131 
   10600    10836    10666    10154     9478     8831     8526     8422 
    8305     8714     9760    10540    10876    11207    10893     9614 
    8877     9440     9977     9747     9243     8541     7796     7820 
    8788     9936    10609    10902    11038    10619     9649     8950 
    8494     7630     6951     7659     9463    10743    10612     9753 
    9387     9836    10281    10116     9655     9363     9316     9247 
    8797     8035     7600     8256     9975    11457    11853    12244 
   13277    13304    11685    10623    11022    11115    10640    11002 
   11732    11384    10262     9517     9445     9603     9404     8758 
    8317     8413     8530     8248     7832     7815     8608    10108 
   11037    10099     8334     7986     9085    10008    10431    10767 
   10471     9444     8795     8664     8349     8494     9624    10466 
   10450    10443    10231     9089     8071     8409     9151     9302 
    9865    10967    10993    10106     9848    10099    10212    10416 
   10476     9868     8992     8329     7977     8441     9707    10639 
   10962    11416    11649    10993    10007     9084     7986     7418 
    8284     9821    10633    10484     9679     8461     7647     7766 
    8024     8021     8523     9431     9803     9759     9756     9482 
    9377    10365    11485    11526    11489    11997    11826    10890 
   10345     9921     9061     8749     9386     9926    10050    10034 
    9568     8557     7619     7461     8202     9252    10137    10987 
   11934    12675    12804    12345    11577    10609     9710     9117 
    8721     8997    10440    11832    11580     9863     7877     6327 
    5562     6012     7616     9406    10494    10859    10579     9375 
    7777     7200     7962     9018     9958    11171    12401    12942 
   12505    11300    10189     9938     9944     9331     8437     7636 
    6775     6385     7063     8135     8754     9043     9374     9879 
   10532    10993    10971    10805    11022    11603    12309    13188 
   13911    13358    11010     8001     5745     4696     5107     7157 
    9771    11211    10971     9755     8391     7726     8318     9672 
   10829    11607    12357    13036    13208    12544    10935     8775 
    7230     7142     8035     9221    10530    11119     9930     7828 
    6880     7657     9522    12172    14539    14837    13378    11912 
   10540     8977     8299     8715     8988     8911     9108     9051 
    7916     6520     6320     7003     7249     7241     8095     9455 
   10012     9898    10079    10299    10077    10079    10785    11462 
   11256    10424     9892    10174    11056    11503    10704     9332 
    8139     7106     6932     8340    10311    11356    11294    10660 
    9768     8923     8434     8467     9256    10678    12089    13069 
   13366    12718    11225     9201     7130     6115     7034     8808 
    9467     9093     8976     9090     9279    10166    11178    10795 
    9177     8137     8513     9270     9574     9848    10462    11337 
   12252    12376    11292     9949     8842     7450     6014     5266 
    5097     5406     6963     9956    12931    14806    16289    17501 
   16956    14354    11284     8519     5733     3715     3742     5278 
    7009     9027    11664    13853    14661    14492    13710    12074 
    9525     6224     2666      210      426     3427     7447    10629 
   12561    13497    13389    12467    11404    10397     9254     8371 
    8572    10174    12802    15512    16931    16236    13944    11024 
    8182     6390     6268     6926     7584     8907    10879    12031 
   11666    10237     7921     4703     1417     -145     1113     4172 
    7483    10855    14197    16767    18493    19417    18937    17604 
   16692    15850    14260    12312    10239     7823     5529     3678 
    1937      174    -1740    -3418    -3511    -1447     2330     7522 
   13431    18208    20019    19238    17516    14847    10989     7425 
    5167     4298     5298     8171    12117    15894    17874    17520 
   15990    14571    13612    12803    12182    12399    13405    13760 
   11732     7029     1281    -3801    -7553    -9258    -8158    -4446 
    1082     7518    13624    18477    22157    24860    26253    26119 
   24711    22449    19611    16355    12563     8225     4372     1850 
      28    -1425    -1944    -1794    -1904    -2205    -1383     1702 
    6705    12317    17543    21509    23275    22792    20684    17433 
   13606     9641     5811     3009     2330     4067     7426    10737 
   12796    13605    13297    12102    10812     9776     8375     6508 
    5719     7038     9198    10660    11013    10266     8868     7695 
    7002     6407     5960     5779     5514     5321     5996     7904 
   10521    13173    15746    18076    19552    19728    18517    16198 
   13203     9706     6319     4221     3597     3449     3338     3846 
    5067     6116     6561     6891     7465     8442    10241    12915 
   15643    17212    16900    15202    13360    12222    11974    12121 
   11538     9474     6621     4394     3437     3904     5753     7896 
    9159     9819    10457    10984    11584    12436    12760    11813 
    9834     7588     6219     6845     9337    12239    14137    14584 
   13801    12005     9506     7217     5861     5350     5640     6770 
    8286     9443     9616     8972     8328     8027     8083     8999 
   10818    12154    11794    10185     8526     7573     7573     8729 
   10682    12102    12357    12286    12307    11763    10561     9427 
    8668     8347     8650     9197     9416     9594    10100    10093 
    8685     6859     6305     7071     8297     9985    11962    13069 
   13190    13456    13900    13779    13335    13012    12544    11828 
   11184    10616     9683     8129     6133     3975     2038     1023 
    1568     3570     6285     8922    10872    12168    13301    13863 
   13209    12052    11146    10494    10962    13351    16069    16946 
   16140    14948    13494    11226     8584     6381     4436     2519 
    1275     1237     2119     3383     4907     6739     8498     9545 
    9672     9370     9302     9612    10266    11664    13980    16621 
   18798    19950    19766    18492    16475    13505     9952     7003 
    4912     3400     2971     3688     4549     4882     4968     5478 
    6702     8222     9579    10918    12387    13393    13359    12529 
   11302     9961     9134     9181     9783    10677    11581    11646 
   10346     8426     7163     6987     7306     7527     7627     7809 
    8407     9850    12021    13830    13964    12187     9498     6897 
    4846     3762     3789     4495     5512     6687     7739     8509 
    9265    10241    10967    11159    11854    13494    14904    16023 
   17803    19387    19522    18617    16700    13095     8829     5728 
    3898     2662     2286     3079     4634     6690     8945    10593 
   11458    12239    13359    14662    15608    15554    14172    11492 
    8187     5404     3468     1933     1156     1923     3971     6577 
    9579    12816    15647    17633    18625    18334    17069    15618 
   13668    10569     6922     3410       58    -2427    -3072    -2088 
    -174     2589     6100     9679    12941    15884    17907    18331 
   17415    15793    13911    12208    11032    10504    10412    10234 
    9871     9640     9275     8268     6957     5961     5460     5884 
    7620     9760    11242    12206    12568    11722    10137     8699 
    7402     6241     5894     6849     8694    10484    11708    12449 
   12714    12513    12187    12237    13019    14011    14211    13648 
   12901    11855    10357     8943     8221     8028     7763     7171 
    6223     5007     3964     3492     3501     3819     4814     6871 
    9393    11529    13450    15391    16465    16143    15454    14986 
   13969    12679    12329    12370    11545    10373     9765     9304 
    8473     7584     6849     6168     5589     4966     4093     3570 
    4244     5709     7092     8853    11449    13589    14341    14636 
   14955    14472    13062    11603    10458     9190     7716     6636 
    6076     5647     5506     6041     7322     9144    10820    11730 
   12010    11817    11034    10342    10455    10426     9416     8580 
    8634     8554     8050     7902     8201     8622     9136     9529 
    9416     8743     7871     7333     7497     8376     9855    11959 
   14299    15913    16486    16445    15867    14789    13844    13433 
   13024    11935    10427     9120     7877     6566     5663     5223 
    4766     4081     3460     3520     4482     5768     6855     7703 
    8147     8091     8264     9346    10750    11638    12175    12646 
   12656    12237    12156    12314    11778    10658     9763     9224 
    9047     9586    10693    11677    12120    11808    10652     9306 
    8599     8401     8205     8005     7766     7137     6442     6582 
    7431     8091     8599     9574    10971    12451    13983    15275 
   15630    15016    14062    12939    11634    10692    10319     9945 
    9320     8671     8040     7349     6627     6035     5711     5787 
    6571     7955     9227    10133    10920    11487    11695    11739 
   11627    11049     9987     8860     8037     7743     7993     8355 
    8397     8233     8268     8661     9130     9427     9688    10161 
   11001    11898    12256    12228    12344    12309    11349     9359 
    7233     5975     5486     5053     4896     5691     6967     7836 
    8542     9815    11707    13787    15510    16486    16692    16000 
   14270    12291    11119    10586     9755     8361     7051     6285 
    5787     5320     4992     4911     5194     5863     6863     8185 
    9814    11711    13421    14165    13794    12889    11943    11106 
   10424     9902     9441     8965     8716     8846     8884     8532 
    8233     8376     8959     9971    11175    12077    12583    12708 
